OBJECT_NAME,OBJECT_ID,EPOCH,MEAN_MOTION,ECCENTRICITY,INCLINATION,RA_OF_ASC_NODE,ARG_OF_PERICENTER,MEAN_ANOMALY,EPHEMERIS_TYPE,CLASSIFICATION_TYPE,NORAD_CAT_ID,ELEMENT_SET_NO,REV_AT_EPOCH,BSTAR,MEAN_MOTION_DOT,MEAN_MOTION_DDOT
COSMOS 2407,2004-028A,2026-07-07T01:53:32.720352,13.76336192,.0038765,82.9593,60.1004,194.8147,330.2282,0,U,28380,999,10261,.26134E-4,.41E-6,0
COSMOS 2414,2005-002A,2026-07-07T00:01:53.134752,13.87927685,.0038672,82.9487,28.6554,273.0753,86.5986,0,U,28521,999,8656,.24787E-4,.45E-6,0
INMARSAT 4-F1,2005-009A,2026-07-06T11:07:37.822080,1.00271311,.00027419,5.1927,42.7722,67.1906,159.4982,0,U,28628,999,7786,0,.44E-6,0
SJ-7,2005-024A,2026-07-07T00:22:04.952640,15.21855512,.0014202,97.7280,218.6551,328.0430,31.9943,0,U,28737,999,15104,.25955E-3,.5842E-4,0
CUBESAT XI-V,2005-043F,2026-07-06T21:40:08.857056,14.72686848,.0014934,98.3006,343.9413,139.5987,220.6332,0,U,28895,999,10465,.21205E-3,.1301E-4,0
HINODE (SOLAR-B),2006-041A,2026-07-06T22:38:34.468800,14.68650644,.0016435,98.0546,203.8046,221.6643,138.3312,0,U,29479,999,5777,.11454E-3,.618E-5,0
SHIJIAN-6 02B (SJ-6 02B),2006-046B,2026-07-07T04:57:49.387968,15.01428691,.0014388,97.7149,217.1419,2.4927,357.6367,0,U,29506,999,7374,.11593E-3,.1438E-4,0
DMSP 5D-3 F17 (USA 191),2006-050A,2026-07-07T04:20:35.974752,14.14995859,.0010199,98.7382,194.3421,5.9608,354.1685,0,U,29522,999,1525,.42632E-4,.39E-6,0
LAPAN-TUBSAT,2007-001A,2026-07-07T04:28:14.758752,14.85971242,.0013405,98.1353,187.8621,117.1256,243.1327,0,U,29709,999,5412,.24158E-4,.153E-5,0
HAIYANG-1B,2007-010A,2026-07-06T22:22:21.527040,14.31031817,.00143,98.3506,169.0126,138.6913,221.5354,0,U,31113,999,346,.4633E-4,.8E-6,0
COSMO-SKYMED 2,2007-059A,2026-07-07T03:27:33.691680,14.82162098,.0001348,97.8891,11.4530,91.9165,268.2202,0,U,32376,999,496,.48243E-4,.332E-5,0
CARTOSAT-2A,2008-021A,2026-07-07T04:53:56.336064,14.79269206,.0013003,97.7618,236.2289,51.0455,309.1913,0,U,32783,999,98176,.51701E-4,.335E-5,0
CUTE-1.7+APD II (CO-65),2008-021C,2026-07-07T03:14:01.561056,15.09652011,.0007586,97.8289,169.9714,332.5664,27.5163,0,U,32785,999,98820,.22322E-3,.3527E-4,0
SEEDS II (CO-66),2008-021J,2026-07-06T23:27:44.284032,15.33467667,.0002095,97.7526,186.8299,175.3299,184.7963,0,U,32791,999,99032,.41928E-3,.13488E-3,0
YUBILEINY (RS30),2008-025A,2026-07-07T05:13:53.369184,12.43180169,.0018509,82.5058,342.9784,267.5565,92.3396,0,U,32953,999,82218,-.92788E-4,-.3E-7,0
FENGYUN 3A,2008-026A,2026-07-06T20:28:34.681152,14.19575331,.0009864,98.6885,128.3188,73.3980,286.8279,0,U,32958,999,93819,.53635E-4,.7E-6,0
HUANJING 1A (HJ-1A),2008-041A,2026-07-07T04:36:28.514880,14.84040050,.0020678,97.6696,173.2581,74.0271,286.3219,0,U,33320,999,96137,.26797E-3,.219E-4,0
HUANJING 1B (HJ-1B),2008-041B,2026-07-07T05:42:16.648416,14.83355001,.003766,97.6532,176.4128,116.2519,244.2573,0,U,33321,999,96138,.11263E-3,.883E-5,0
SHIJIAN-6 03A (SJ-6 03A),2008-053A,2026-07-07T05:30:25.430400,15.17368194,.0009827,97.8401,222.2478,307.8486,52.1857,0,U,33408,999,96600,.18377E-3,.36E-4,0
SHIJIAN-6 03B (SJ-6 03B),2008-053B,2026-07-07T04:30:12.117600,15.04371492,.0018661,97.8578,208.4101,338.6470,21.3975,0,U,33409,999,96575,.13627E-3,.1843E-4,0
CHUANGXIN 1-02 (CX-1-02),2008-056B,2026-07-07T05:41:00.835872,14.30157654,.0015524,98.6128,214.3033,82.1033,278.1911,0,U,33434,999,92148,.47528E-4,.79E-6,0
STARS (KUKAI),2009-002G,2026-07-07T02:04:42.481056,14.95897066,.0010274,98.1558,136.2095,101.5291,258.7083,0,U,33498,999,94145,.2583E-3,.2829E-4,0
